ONEWEB-0588             
1 55153U 23004P   26192.84397250 -.00000028  00000+0 -10348-3 0  9996
2 55153  87.9184 330.5641 0002238  86.0608 274.0780 13.18686445172940
ONEWEB-0598             
1 55154U 23004Q   26192.49894076  .00000633  00000+0  17499-2 0  9999
2 55154  87.8870  16.2267 0002479 101.6408 258.4998 13.11417058169086
ONEWEB-0599             
1 55155U 23004R   26192.85602962 -.00000033  00000+0 -11811-3 0  9990
2 55155  87.9135   0.9554 0001765  97.8839 262.2493 13.17650337170734
ONEWEB-0614             
1 55156U 23004S   26192.95163100  .00000415  00000+0  11349-2 0  9995
2 55156  87.8878  16.1452 0001812  81.8889 278.2444 13.11417591169081
ONEWEB-0616             
1 55157U 23004T   26192.89821575  .00000044  00000+0  79474-4 0  9999
2 55157  87.9140   0.9516 0001590 123.4789 236.6495 13.17650728170951
ONEWEB-0617             
1 55158U 23004U   26192.55826995 -.00000037  00000+0 -14121-3 0  9995
2 55158  87.8883  16.2153 0001949  76.6901 283.4444 13.11419663169053
ONEWEB-0618             
1 55159U 23004V   26192.46007566  .00002685  00000+0  14856-3 0  9995
2 55159  86.9104 167.7784 0011627 189.0153 171.0880 15.13354529185938
ONEWEB-0619             
1 55160U 23004W   26192.47466232 -.00000019  00000+0 -82586-4 0  9994
2 55160  87.9134   1.0182 0001270  76.2795 283.8478 13.17650789170790
ONEWEB-0620             
1 55161U 23004X   26192.93466414 -.00000239  00000+0 -71002-3 0  9992
2 55161  87.8879  16.1479 0002106  90.4415 269.6955 13.11418746169078
ONEWEB-0621             
1 55162U 23004Y   26192.50402668  .00000504  00000+0  13875-2 0  9993
2 55162  87.8869  16.2249 0001732  79.4821 280.6502 13.11415533168998
ONEWEB-0622             
1 55163U 23004Z   26192.50911312  .00000424  00000+0  11601-2 0  9991
2 55163  87.8891  16.2273 0002289  73.2308 286.9071 13.11415157168982
ONEWEB-0623             
1 55164U 23004AA  26192.84928051 -.00000035  00000+0 -12241-3 0  9999
2 55164  87.9124   0.9714 0001748  64.6346 295.4966 13.17647432170832
ONEWEB-0624             
1 55165U 23004AB  26192.81039641  .00000206  00000+0  53285-3 0  9996
2 55165  87.8963 345.6847 0001793  90.3202 269.8132 13.12927924171301
ONEWEB-0625             
1 55166U 23004AC  26192.91508958  .00000054  00000+0  10669-3 0  9990
2 55166  87.9134   0.9546 0001650  94.6874 265.4446 13.17650994170836
ONEWEB-0626             
1 55167U 23004AD  26192.82904758  .00000066  00000+0  13800-3 0  9992
2 55167  87.9139   0.9712 0002140  98.5751 261.5624 13.17650223170828
ONEWEB-0627             
1 55168U 23004AE  26192.51347766  .00000120  00000+0  27675-3 0  9995
2 55168  87.9142   1.0357 0002047  84.2193 275.9172 13.17648631170780
